0 INTELSAT 906
1 27513U 02041A   13282.93406356  .00000000  00000-0  10000-3 0  9856
2 27513 000.0104 359.5199 0002886 204.6529 215.0052 01.00271381 40606
0 INTELSAT 906
1 27513U 02041A   13283.72336058 -.00000004  00000-0  10000-3 0  9850
2 27513 000.0042 306.0303 0002880 252.9597 145.0699 01.00272531 40670
0 INTELSAT 906
1 27513U 02041A   13287.90528080 -.00000011  00000-0  10000-3 0  9861
2 27513 000.0295 088.3164 0003439 137.4620 187.8696 01.00271866 40727
0 INTELSAT 906
1 27513U 02041A   13291.95415464 -.00000005  00000-0  10000-3 0  9876
2 27513 000.0071 350.3997 0003184 224.9117 219.9389 01.00273493 40763
0 INTELSAT 906
1 27513U 02041A   13293.56463807 -.00000002  00000-0  10000-3 0  9887
2 27513 000.0068 350.4613 0003177 226.1754 079.9840 01.00273815 40773
0 INTELSAT 906
1 27513U 02041A   13293.75367538 -.00000001  00000-0  10000-3 0  9892
2 27513 000.0068 349.7943 0003295 222.6616 152.4035 01.00273392 40783
0 INTELSAT 906
1 27513U 02041A   13295.74372360  .00000002  00000-0  10000-3 0  9904
2 27513 000.0079 302.0509 0003614 266.5938 154.5950 01.00273027 40801
